     2.11           N: GPS NAV DATA                         RINEX VERSION / TYPE
teqc  2018Dec12     gpsops              20220304 01:04:09UTCPGM / RUN BY / DATE
Linux 2.6.32-573.12.1.x86_64|x86_64|gcc -static|Linux 64|=+ COMMENT
CHPI                                    MARKER NAME         COMMENT
41609M003                               MARKER NUMBER       COMMENT
4164613.9484 -4162456.9866 -2445028.7316                    COMMENT
                                                            COMMENT
This data is provided as a public service by NASA/JPL.      COMMENT
No warranty is expressed or implied regarding suitability   COMMENT
for use.  For further information, contact:                 COMMENT
Dave Stowers, NASA/JPL m/s 238-600                          COMMENT
4800 Oak Grove Drive, Pasadena CA 91109 USA                 COMMENT
                                                            END OF HEADER
 6 22  3  3 20  0  0.0 2.194391563535D-04 1.239186531166D-11 0.000000000000D+00
    6.800000000000D+01 9.915625000000D+01 3.851589005571D-09-2.024349187183D-01
    5.157664418221D-06 2.691603847779D-03 9.650364518166D-06 5.153680284500D+03
    4.176000000000D+05-1.117587089539D-08-2.171444202967D+00-5.960464477539D-08
    9.863795574335D-01 2.083750000000D+02-9.323195644521D-01-7.854970048174D-09
    3.903734034763D-10 1.000000000000D+00 2.199000000000D+03 0.000000000000D+00
    2.000000000000D+00 0.000000000000D+00 3.725290298462D-09 6.800000000000D+01
    4.153320000000D+05 4.000000000000D+00
 3 22  3  3 22  0  0.0-1.472015865147D-04-1.728039933369D-11 0.000000000000D+00
    2.900000000000D+01-3.184375000000D+01 4.736983028643D-09-6.017448496826D-01
   -1.680105924606D-06 3.906187601388D-03 2.294778823853D-06 5.153664674759D+03
    4.248000000000D+05 9.313225746155D-09-1.127913051683D+00 3.911554813385D-08
    9.724724525239D-01 3.396250000000D+02 9.518156703489D-01-8.514640383235D-09
   -2.221521106700D-10 1.000000000000D+00 2.199000000000D+03 0.000000000000D+00
    2.000000000000D+00 0.000000000000D+00 1.862645149231D-09 2.900000000000D+01
    4.176180000000D+05 4.000000000000D+00
 4 22  3  3 22  0  0.0-1.860507763922D-04 2.501110429876D-12 0.000000000000D+00
    6.800000000000D+01-7.031250000000D+01 4.228747572882D-09 2.306970684943D+00
   -3.656372427940D-06 1.735201687552D-03 1.182779669762D-05 5.153653963089D+03
    4.248000000000D+05-1.490116119385D-08-4.656097250282D-02 1.676380634308D-08
    9.616656674751D-01 1.522187500000D+02-3.037704608750D+00-7.893185925733D-09
   -2.707255625206D-10 1.000000000000D+00 2.199000000000D+03 0.000000000000D+00
    2.000000000000D+00 0.000000000000D+00-4.190951585770D-09 8.360000000000D+02
    4.176180000000D+05 4.000000000000D+00
 1 22  3  3 22  0  0.0 4.176176153123D-04-9.322320693173D-12 0.000000000000D+00
    5.600000000000D+01 1.023125000000D+02 4.028382083998D-09 5.446498897798D-01
    5.563721060753D-06 1.147602265701D-02 8.612871170044D-06 5.153669065475D+03
    4.248000000000D+05-1.173466444016D-07-2.163229325470D+00 1.601874828339D-07
    9.870062671499D-01 2.267500000000D+02 8.831708902868D-01-8.038906281285D-09
    2.696540893180D-10 1.000000000000D+00 2.199000000000D+03 0.000000000000D+00
    2.000000000000D+00 0.000000000000D+00 5.122274160385D-09 5.600000000000D+01
    4.176180000000D+05 4.000000000000D+00
 9 22  3  3 22  0  0.0-3.515910357237D-04 1.818989403546D-12 0.000000000000D+00
    4.500000000000D+01-8.337500000000D+01 4.335894893140D-09-3.111654861646D+00
   -4.263594746590D-06 2.210826147348D-03 1.155026257038D-05 5.153619371414D+03
    4.248000000000D+05 5.587935447693D-09-9.962577449911D-02 3.725290298462D-09
    9.546484429738D-01 1.536250000000D+02 1.880171070592D+00-7.941402219850D-09
   -3.307280618656D-10 1.000000000000D+00 2.199000000000D+03 0.000000000000D+00
    2.000000000000D+00 0.000000000000D+00 1.396983861923D-09 4.500000000000D+01
    4.176180000000D+05 4.000000000000D+00
16 22  3  3 22  0  0.0-4.764175973833D-04-4.547473508865D-12 0.000000000000D+00
    3.800000000000D+01-3.390625000000D+01 4.891275169815D-09-2.627675549325D+00
   -2.006068825722D-06 1.279303571209D-02 3.920868039131D-06 5.153607343674D+03
    4.248000000000D+05 1.341104507446D-07 2.103692679221D+00-3.036111593246D-07
    9.697289383827D-01 3.090937500000D+02 7.140121981597D-01-8.283916486944D-09
   -1.339341503235D-10 1.000000000000D+00 2.199000000000D+03 0.000000000000D+00
    2.000000000000D+00 0.000000000000D+00-1.024454832077D-08 3.800000000000D+01
    4.176180000000D+05 4.000000000000D+00
 7 22  3  3 22  0  0.0 3.139995969832D-04 2.273736754432D-12 0.000000000000D+00
    9.800000000000D+01 7.450000000000D+01 4.843416033433D-09-1.270604492406D-01
    4.030764102936D-06 1.562651665881D-02 9.506940841675D-06 5.153688871384D+03
    4.248000000000D+05 3.539025783539D-08 9.718286091110D-01 2.887099981308D-07
    9.509770364678D-01 1.947500000000D+02-2.288415987311D+00-8.493210919183D-09
    6.739566444280D-10 1.000000000000D+00 2.199000000000D+03 0.000000000000D+00
    2.000000000000D+00 0.000000000000D+00-1.117587089539D-08 9.800000000000D+01
    4.176180000000D+05 4.000000000000D+00
26 22  3  3 22  0  0.0 1.878961920738D-04 3.069544618484D-12 0.000000000000D+00
    7.600000000000D+01-1.284375000000D+01 5.640592096159D-09-1.694048984603D+00
   -9.052455425262D-07 6.906671915203D-03 2.890825271606D-06 5.153703399658D+03
    4.248000000000D+05 1.043081283569D-07 1.960781135159D+00-5.029141902924D-08
    9.380281736214D-01 3.085000000000D+02 3.784371035844D-01-8.802509516997D-09
    8.607501394126D-11 1.000000000000D+00 2.199000000000D+03 0.000000000000D+00
    2.000000000000D+00 0.000000000000D+00 6.984919309616D-09 7.600000000000D+01
    4.176180000000D+05 4.000000000000D+00
 6 22  3  3 22  0  0.0 2.195285633206D-04 1.239186531166D-11 0.000000000000D+00
    8.800000000000D+01 1.036875000000D+02 3.929449391625D-09 8.477169901753D-01
    5.204230546951D-06 2.691068453714D-03 9.449198842049D-06 5.153679363251D+03
    4.248000000000D+05 3.911554813385D-08-2.171500743288D+00-3.166496753693D-08
    9.863821745940D-01 2.102500000000D+02-9.322986286315D-01-7.877113827695D-09
    3.653723620826D-10 1.000000000000D+00 2.199000000000D+03 0.000000000000D+00
    2.000000000000D+00 0.000000000000D+00 3.725290298462D-09 8.800000000000D+01
    4.176180000000D+05 4.000000000000D+00
21 22  3  3 22  0  0.0 1.589017920196D-04 5.684341886081D-13 0.000000000000D+00
    5.400000000000D+01 1.178125000000D+02 4.418398329740D-09 2.905584729015D+00
    6.236135959625D-06 2.457679132931D-02 9.527429938316D-06 5.153581647873D+03
    4.248000000000D+05 2.533197402954D-07-2.254563868389D+00 4.135072231293D-07
    9.596065181147D-01 1.894375000000D+02-9.930838754610D-01-7.772466611575D-09
    2.700112470522D-10 1.000000000000D+00 2.199000000000D+03 0.000000000000D+00
    2.000000000000D+00 0.000000000000D+00-1.024454832077D-08 5.400000000000D+01
    4.176180000000D+05 4.000000000000D+00
30 22  3  3 22  0  0.0-5.166968330741D-04-2.160049916711D-12 0.000000000000D+00
    2.400000000000D+01 7.487500000000D+01 5.113070122751D-09-8.019060060325D-02
    3.954395651817D-06 5.581514211372D-03 9.307637810707D-06 5.153573804855D+03
    4.248000000000D+05 8.940696716309D-08 9.847052740243D-01 9.313225746155D-08
    9.361280010316D-01 1.870000000000D+02-2.737236361841D+00-8.484996291296D-09
    6.778853795042D-10 1.000000000000D+00 2.199000000000D+03 0.000000000000D+00
    2.000000000000D+00 0.000000000000D+00 3.725290298462D-09 2.400000000000D+01
    4.177080000000D+05 4.000000000000D+00
 7 22  3  3 21 59 44.0 3.139991313219D-04 2.273736754432D-12 0.000000000000D+00
    7.000000000000D+00 7.450000000000D+01 4.843416033433D-09-1.293942380637D-01
    4.030764102936D-06 1.562651339918D-02 9.506940841675D-06 5.153688863754D+03
    4.247840000000D+05 3.539025783539D-08 9.718287627174D-01 2.887099981308D-07
    9.509770218387D-01 1.947500000000D+02-2.288415862963D+00-8.493210919183D-09
    6.739566444280D-10 1.000000000000D+00 2.199000000000D+03 0.000000000000D+00
    2.000000000000D+00 0.000000000000D+00-1.117587089539D-08 7.000000000000D+00
    4.197360000000D+05 4.000000000000D+00
 8 22  3  3 22  0  0.0-5.842372775078D-05-1.591615728103D-12 0.000000000000D+00
    8.600000000000D+01-4.081250000000D+01 4.308750905342D-09 2.789952212525D+00
   -2.114102244377D-06 7.360000163317D-03 1.196749508381D-05 5.153732696533D+03
    4.248000000000D+05-1.192092895508D-07 3.040367655082D+00-7.450580596924D-09
    9.648151896596D-01 1.521562500000D+02 1.179601976300D-01-7.749965674321D-09
   -4.314465429089D-10 1.000000000000D+00 2.199000000000D+03 0.000000000000D+00
    2.000000000000D+00 0.000000000000D+00 5.122274160385D-09 8.600000000000D+01
    4.215960000000D+05 4.000000000000D+00
11 22  3  3 22  0  0.0-7.233349606395D-05 1.023181539495D-11 0.000000000000D+00
    6.000000000000D+00 1.088437500000D+02 4.501616081807D-09 2.739222360909D+00
    5.627050995827D-06 2.738982439041D-04 8.817762136459D-06 5.153778860092D+03
    4.248000000000D+05 2.235174179077D-08-2.119849184525D+00 9.313225746155D-09
    9.620949154350D-01 2.110937500000D+02 2.783897207762D+00-8.156768333570D-09
    4.010881355022D-10 1.000000000000D+00 2.199000000000D+03 0.000000000000D+00
    2.560000000000D+02 6.300000000000D+01-8.847564458847D-09 2.620000000000D+02
    4.225380000000D+05 4.000000000000D+00
27 22  3  3 21 59 44.0 1.413724385202D-04 1.398348103976D-11 0.000000000000D+00
    1.400000000000D+01-3.800000000000D+01 4.060883437809D-09 2.760768190585D+00
   -2.060085535049D-06 1.032929786015D-02 1.201964914799D-05 5.153657493591D+03
    4.247840000000D+05-1.285225152969D-07 3.059917259893D+00-1.359730958939D-07
    9.735339941585D-01 1.542500000000D+02 6.446818625016D-01-7.624603309618D-09
   -4.325180161115D-10 1.000000000000D+00 2.199000000000D+03 0.000000000000D+00
    2.000000000000D+00 0.000000000000D+00 1.396983861923D-09 1.400000000000D+01
    4.231920000000D+05 4.000000000000D+00
